FENGYUN 1C DEB          
1 41001U 99025EXF 17340.23605534  .00001315  00000-0  65744-3 0  9993
2 41001  98.9808 334.8335 0036363 146.8860 277.9485 14.18189659194203
